{"type":"FeatureCollection","features":[{"type":"Feature","id":1,"geometry":{"type":"Polygon","coordinates":[[[-110.32775262427009,24.155931819474077],[-110.36250619682448,24.142276442183526],[-110.35644596518677,24.131102775194893],[-110.35211722907266,24.131215645449014],[-110.34989102144061,24.135617505202596],[-110.35285929768449,24.139003449132627],[-110.35211722907266,24.142615023058507],[-110.33999676579721,24.14791933722158],[-110.32775262427009,24.155931819474077]]]},"properties":{"OBJECTID":1,"Shape_Length":10957.327169094227,"Shape_Area":2321444.909972311}},{"type":"Feature","id":2,"geometry":{"type":"Polygon","coordinates":[[[-110.36522711746328,24.141712138732387],[-110.39923862140584,24.130086938425709],[-110.39280735501306,24.114961310856994],[-110.35941424232892,24.129974067995398],[-110.36522711746328,24.141712138732387]]]},"properties":{"OBJECTID":2,"Shape_Length":11737.034725888392,"Shape_Area":7253876.0859468449}},{"type":"Feature","id":3,"geometry":{"type":"Polygon","coordinates":[[[-110.4004754030244,24.134263103017542],[-110.40010436826934,24.131892864062053],[-110.38217102985955,24.138439131234378],[-110.35879585107051,24.147467914589829],[-110.33430756891458,24.157511686232702],[-110.32799998077347,24.162364012839792],[-110.32960779714708,24.164056641294646],[-110.34679906604674,24.154690482061426],[-110.36126941520592,24.149386448942636],[-110.37648183297691,24.147580770397287],[-110.38056321348593,24.149499303055823],[-110.38538666350512,24.156834603339821],[-110.39021011262595,24.161009893268229],[-110.39725977027717,24.160332828918246],[-110.40208321939801,24.152094918511974],[-110.4004754030244,24.134263103017542]]]},"properties":{"OBJECTID":3,"Shape_Length":21526.941464566637,"Shape_Area":9108264.9862703215}}]}