{"type":"FeatureCollection","features":[{"type":"Feature","id":1,"geometry":{"type":"Point","coordinates":[-110.32508134004232,24.156034983597351]},"properties":{"OBJECTID":1,"Name":"Inicio de reccorido","Type":"Inicio de reccorido"}},{"type":"Feature","id":2,"geometry":{"type":"Point","coordinates":[-110.35421975755472,24.143066462010438]},"properties":{"OBJECTID":2,"Name":"Barco punta de palo","Type":"Barco hundido"}},{"type":"Feature","id":3,"geometry":{"type":"Point","coordinates":[-110.36708229034026,24.134375970482505]},"properties":{"OBJECTID":3,"Name":"Malvinas","Type":"Malvinas"}},{"type":"Feature","id":4,"geometry":{"type":"Point","coordinates":[-110.37054527959087,24.139003449132627]},"properties":{"OBJECTID":4,"Name":"Barco varado","Type":"Barco hundido"}},{"type":"Feature","id":5,"geometry":{"type":"Point","coordinates":[-110.3863760886203,24.140132076637041]},"properties":{"OBJECTID":5,"Name":"Barco del lobo","Type":"Barco hundido"}},{"type":"Feature","id":6,"geometry":{"type":"Point","coordinates":[-110.37363723498474,24.146790777652519]},"properties":{"OBJECTID":6,"Name":"Acuacultura de ostion","Type":"Acuacultura"}},{"type":"Feature","id":7,"geometry":{"type":"Point","coordinates":[-110.34543860617651,24.154577632533137]},"properties":{"OBJECTID":7,"Name":"Alimentos","Type":"Alimentos"}}]}